TOMORROW-S1             
1 60479U 24149M   26068.72470524  .00008620  00000+0  28856-3 0  9996
2 60479  97.3791 149.6044 0001819 207.2040 152.9106 15.31198362 86867
STARLINK-35709          
1 66216U 25244L   26068.73122473  .00031374  00000+0  10667-2 0  9998
2 66216  53.1574 229.8782 0000871  74.3362 285.7735 15.30208054 21667
